OBJECT_NAME,OBJECT_ID,EPOCH,MEAN_MOTION,ECCENTRICITY,INCLINATION,RA_OF_ASC_NODE,ARG_OF_PERICENTER,MEAN_ANOMALY,EPHEMERIS_TYPE,CLASSIFICATION_TYPE,NORAD_CAT_ID,ELEMENT_SET_NO,REV_AT_EPOCH,BSTAR,MEAN_MOTION_DOT,MEAN_MOTION_DDOT
ASNARO-2,2018-007A,2026-05-19T17:25:28.349184,15.22449392,.00017446,97.3982,147.0967,92.7553,267.3883,0,U,43152,999,46308,.25305886E-3,.5786E-4,0
JILIN-1 07,2018-008E,2026-05-20T13:46:07.379328,15.34212205,.00094407,97.1785,161.2475,146.4566,213.7277,0,U,43159,999,46076,.1826272E-3,.5979E-4,0
JILIN-1 08,2018-008F,2026-05-20T13:22:00.497280,15.33320129,.00068392,97.1816,160.5746,156.3257,203.8302,0,U,43160,999,46071,.1816929E-3,.5778E-4,0
LEMUR-2-KADI,2018-014E,2026-05-20T07:29:53.994336,15.89549478,.00048683,97.4450,70.1882,120.4161,239.7593,0,U,43184,999,45665,.13421801E-2,.389683E-2,.58255927E-4
S-NET D,2018-014G,2026-05-20T06:54:06.743520,15.16375702,.00099759,97.5381,45.2556,110.7437,249.4866,0,U,43186,999,45453,.19219744E-3,.3667E-4,0
S-NET B,2018-014H,2026-05-20T07:09:49.246560,15.16345918,.00106721,97.5388,45.2521,107.0177,253.2226,0,U,43187,999,45453,.17034428E-3,.324E-4,0
S-NET A,2018-014J,2026-05-20T13:12:47.631456,15.16384547,.0010588,97.5395,45.7060,106.9833,253.2561,0,U,43188,999,45457,.19376494E-3,.3699E-4,0
S-NET C,2018-014K,2026-05-20T07:15:11.382048,15.16336828,.00120654,97.5415,45.5298,101.9220,258.3366,0,U,43189,999,45308,.16895349E-3,.3213E-4,0
PAZ,2018-020A,2026-05-20T13:46:38.593920,15.19154349,.00016355,97.4454,148.3525,88.8767,271.2655,0,U,43215,999,45681,.57407386E-4,.1139E-4,0
GOES 17,2018-022A,2026-05-20T13:48:32.997024,1.00271277,.00003942,0.8693,86.0700,319.6190,310.1934,0,U,43226,999,3014,0,-.188E-5,0
LKW-4,2018-025A,2026-05-20T10:51:37.302912,15.59964022,.00027966,97.6342,309.2062,64.9056,295.2490,0,U,43236,999,45570,.36886145E-3,.29703E-3,0
ZHUHAI-1 OVS-02,2018-040B,2026-05-20T14:29:33.058176,15.24611252,.00039724,97.0404,159.4760,30.2708,329.8760,0,U,43440,999,44851,.20533489E-3,.4999E-4,0
ZHUHAI-1 OHS-02,2018-040C,2026-05-20T14:29:53.737152,15.25432098,.00082687,97.0387,166.3884,341.1894,18.9038,0,U,43441,999,11007,.21841252E-3,.5459E-4,0
GAOFEN-6,2018-048A,2026-05-20T15:02:22.458912,14.76596828,.00104854,97.7767,204.3183,264.1763,95.8253,0,U,43484,999,42932,.12597597E-3,.831E-5,0
LUOJIA-1 01,2018-048B,2026-05-20T15:45:19.590336,14.87170179,.0008281,97.8103,219.2882,202.5960,157.4893,0,U,43485,999,43012,.20998006E-3,.1835E-4,0
PAKTES 1A,2018-056A,2026-05-20T13:40:41.559744,14.98927618,.00216346,98.1234,295.8849,197.7771,162.2696,0,U,43529,999,42778,.15644875E-3,.1835E-4,0
PRSS-1,2018-056B,2026-05-20T15:24:28.083744,14.81940698,.00018815,97.7826,209.2734,89.5644,270.5785,0,U,43530,999,42435,.87219981E-4,.64E-5,0
HAIYANG-1C,2018-068A,2026-05-20T14:49:06.992256,14.34169888,.00110331,98.5194,213.3224,170.0251,190.1155,0,U,43609,999,40313,.96438811E-4,.227E-5,0
SSTL S1-4,2018-071A,2026-05-20T14:25:49.200960,14.96182513,.00014231,97.5062,13.3576,79.1978,280.9404,0,U,43618,999,41881,.11202807E-3,.1208E-4,0
HAIYANG-2B,2018-081A,2026-05-20T14:21:32.446080,13.79306087,.00014723,99.3289,149.7708,42.3489,317.7777,0,U,43655,999,38112,-.66692662E-4,-.112E-5,0
CFOSAT,2018-083A,2026-05-20T13:50:29.251680,15.16509937,.00014958,97.3611,145.9215,62.6062,297.5323,0,U,43662,999,41825,.11073373E-3,.2093E-4,0
TEN-KOH,2018-084G,2026-05-20T02:14:18.102048,15.02790360,.00090161,98.0751,331.2758,207.9254,152.1488,0,U,43677,999,41194,.1015687E-3,.1293E-4,0
DIWATA-2B,2018-084H,2026-05-20T15:02:10.052736,15.00303317,.00116469,98.1113,335.6493,265.3069,94.6823,0,U,43678,999,41208,.15146232E-3,.1835E-4,0
STARS-AO,2018-084J,2026-05-20T13:34:39.693216,15.16708174,.00007012,98.0526,352.8377,233.9777,126.1390,0,U,43679,999,41328,.19106645E-3,.3668E-4,0
AUTCUBE 2,2018-084K,2026-05-20T00:00:50.143968,15.09872277,.00101119,98.0729,344.6820,132.6960,227.5121,0,U,43681,999,41267,.14159364E-3,.2223E-4,0
METOP-C,2018-087A,2026-05-20T14:48:18.688608,14.21503725,.0000556,98.6658,200.7220,148.7853,211.3358,0,U,43689,999,39091,.48077121E-4,.62E-6,0
ES'HAIL 2,2018-090A,2026-05-20T14:21:22.350240,1.00270389,.00012722,0.0132,324.6556,122.0295,32.7033,0,U,43700,999,2740,0,.139E-5,0
MOHAMMED VI-B,2018-095A,2026-05-20T14:32:48.861312,14.77076266,.00012421,97.9560,213.3095,82.5674,277.5677,0,U,43717,999,40411,.50578691E-4,.306E-5,0
HYSIS,2018-096A,2026-05-20T14:27:07.320384,14.78629322,.00010326,97.9845,207.5640,115.5624,244.5694,0,U,43719,999,40334,.1109863E-3,.761E-5,0
