ASNARO-2                
1 43152U 18007A   26139.72602256  .00005786  00000+0  25306-3 0  9996
2 43152  97.3982 147.0967 0001744  92.7553 267.3883 15.22449392463085
JILIN-1 07              
1 43159U 18008E   26140.57369652  .00005979  00000+0  18263-3 0  9997
2 43159  97.1785 161.2475 0009440 146.4566 213.7277 15.34212205460763
JILIN-1 08              
1 43160U 18008F   26140.55695020  .00005778  00000+0  18169-3 0  9990
2 43160  97.1816 160.5746 0006839 156.3257 203.8302 15.33320129460717
LEMUR-2-KADI            
1 43184U 18014E   26140.31243049  .00389683  58256-4  13422-2 0  9994
2 43184  97.4450  70.1882 0004868 120.4161 239.7593 15.89549478456652
S-NET D                 
1 43186U 18014G   26140.28757805  .00003667  00000+0  19220-3 0  9999
2 43186  97.5381  45.2556 0009975 110.7437 249.4866 15.16375702454534
S-NET B                 
1 43187U 18014H   26140.29848665  .00003240  00000+0  17034-3 0  9994
2 43187  97.5388  45.2521 0010672 107.0177 253.2226 15.16345918454539
S-NET A                 
1 43188U 18014J   26140.55055129  .00003699  00000+0  19376-3 0  9998
2 43188  97.5395  45.7060 0010588 106.9833 253.2561 15.16384547454571
S-NET C                 
1 43189U 18014K   26140.30221507  .00003213  00000+0  16895-3 0  9992
2 43189  97.5415  45.5298 0012065 101.9220 258.3366 15.16336828453086
PAZ                     
1 43215U 18020A   26140.57405780  .00001139  00000+0  57407-4 0  9995
2 43215  97.4454 148.3525 0001635  88.8767 271.2655 15.19154349456811
GOES 17                 
1 43226U 18022A   26140.57538191 -.00000188  00000+0  00000+0 0  9998
2 43226   0.8693  86.0700 0000394 319.6190 310.1934  1.00271277 30147
LKW-4                   
1 43236U 18025A   26140.45251508  .00029703  00000+0  36886-3 0  9991
2 43236  97.6342 309.2062 0002796  64.9056 295.2490 15.59964022455702
ZHUHAI-1 OVS-02         
1 43440U 18040B   26140.60385484  .00004999  00000+0  20533-3 0  9995
2 43440  97.0404 159.4760 0003972  30.2708 329.8760 15.24611252448510
ZHUHAI-1 OHS-02         
1 43441U 18040C   26140.60409418  .00005459  00000+0  21841-3 0  9995
2 43441  97.0387 166.3884 0008268 341.1894  18.9038 15.25432098110079
GAOFEN-6                
1 43484U 18048A   26140.62664883  .00000831  00000+0  12598-3 0  9999
2 43484  97.7767 204.3183 0010485 264.1763  95.8253 14.76596828429324
LUOJIA-1 01             
1 43485U 18048B   26140.65647674  .00001835  00000+0  20998-3 0  9990
2 43485  97.8103 219.2882 0008281 202.5960 157.4893 14.87170179430121
PAKTES 1A               
1 43529U 18056A   26140.56992546  .00001835  00000+0  15645-3 0  9992
2 43529  98.1234 295.8849 0021634 197.7771 162.2696 14.98927618427787
PRSS-1                  
1 43530U 18056B   26140.64199171  .00000640  00000+0  87220-4 0  9998
2 43530  97.7826 209.2734 0001881  89.5644 270.5785 14.81940698424359
HAIYANG-1C              
1 43609U 18068A   26140.61744204  .00000227  00000+0  96439-4 0  9991
2 43609  98.5194 213.3224 0011033 170.0251 190.1155 14.34169888403136
SSTL S1-4               
1 43618U 18071A   26140.60126390  .00001208  00000+0  11203-3 0  9999
2 43618  97.5062  13.3576 0001423  79.1978 280.9404 14.96182513418818
HAIYANG-2B              
1 43655U 18081A   26140.59829220 -.00000112  00000+0 -66693-4 0  9990
2 43655  99.3289 149.7708 0001472  42.3489 317.7777 13.79306087381123
CFOSAT                  
1 43662U 18083A   26140.57672745  .00002093  00000+0  11073-3 0  9995
2 43662  97.3611 145.9215 0001495  62.6062 297.5323 15.16509937418255
TEN-KOH                 
1 43677U 18084G   26140.09326507  .00001293  00000+0  10157-3 0  9994
2 43677  98.0751 331.2758 0009016 207.9254 152.1488 15.02790360411944
DIWATA-2B               
1 43678U 18084H   26140.62650524  .00001835  00000+0  15146-3 0  9998
2 43678  98.1113 335.6493 0011646 265.3069  94.6823 15.00303317412085
STARS-AO                
1 43679U 18084J   26140.56573719  .00003668  00000+0  19107-3 0  9999
2 43679  98.0526 352.8377 0000701 233.9777 126.1390 15.16708174413282
AUTCUBE 2               
1 43681U 18084K   26140.00058037  .00002223  00000+0  14159-3 0  9990
2 43681  98.0729 344.6820 0010111 132.6960 227.5121 15.09872277412675
METOP-C                 
1 43689U 18087A   26140.61688297  .00000062  00000+0  48077-4 0  9991
2 43689  98.6658 200.7220 0000556 148.7853 211.3358 14.21503725390914
ES'HAIL 2               
1 43700U 18090A   26140.59817535  .00000139  00000+0  00000+0 0  9999
2 43700   0.0132 324.6556 0001272 122.0295  32.7033  1.00270389 27407
MOHAMMED VI-B           
1 43717U 18095A   26140.60612108  .00000306  00000+0  50579-4 0  9990
2 43717  97.9560 213.3095 0001242  82.5674 277.5677 14.77076266404111
HYSIS                   
1 43719U 18096A   26140.60216806  .00000761  00000+0  11099-3 0  9996
2 43719  97.9845 207.5640 0001032 115.5624 244.5694 14.78629322403344
